[{"OBJECT_NAME":"STARLINK-4521","OBJECT_ID":"2022-097D","EPOCH":"2026-03-09T10:44:18.339936","MEAN_MOTION":15.08836625,"ECCENTRICITY":0.00014815,"INCLINATION":53.2173,"RA_OF_ASC_NODE":125.2078,"ARG_OF_PERICENTER":98.0756,"MEAN_ANOMALY":262.0405,"EPHEMERIS_TYPE":0,"CLASSIFICATION_TYPE":"U","NORAD_CAT_ID":53391,"ELEMENT_SET_NO":999,"REV_AT_EPOCH":19863,"BSTAR":-2.4584613e-5,"MEAN_MOTION_DOT":-6.79e-6,"MEAN_MOTION_DDOT":0},{"OBJECT_NAME":"PEGASUS DEB","OBJECT_ID":"1994-029AFX","EPOCH":"2026-03-01T06:33:22.731264","MEAN_MOTION":14.85739755,"ECCENTRICITY":0.0106553,"INCLINATION":81.851,"RA_OF_ASC_NODE":257.2393,"ARG_OF_PERICENTER":271.4617,"MEAN_ANOMALY":87.4394,"EPHEMERIS_TYPE":0,"CLASSIFICATION_TYPE":"U","NORAD_CAT_ID":39924,"ELEMENT_SET_NO":999,"REV_AT_EPOCH":63095,"BSTAR":0.00041812,"MEAN_MOTION_DOT":4.045e-5,"MEAN_MOTION_DDOT":0}]
